OBJECT_NAME,OBJECT_ID,EPOCH,MEAN_MOTION,ECCENTRICITY,INCLINATION,RA_OF_ASC_NODE,ARG_OF_PERICENTER,MEAN_ANOMALY,EPHEMERIS_TYPE,CLASSIFICATION_TYPE,NORAD_CAT_ID,ELEMENT_SET_NO,REV_AT_EPOCH,BSTAR,MEAN_MOTION_DOT,MEAN_MOTION_DDOT
SKYSAT-C1,2016-040C,2026-07-04T19:13:18.213600,15.36616961,.00015029,96.9550,216.5680,19.1111,341.0190,0,U,41601,999,56057,.48722361E-3,.17363E-3,0
LAPAN-A3,2016-040E,2026-07-04T22:39:05.685984,15.33228050,.00087101,97.1497,181.5076,320.4839,39.5768,0,U,41603,999,55753,.16313718E-3,.5167E-4,0
GAOFEN-3,2016-049A,2026-07-04T23:36:13.911840,14.42217526,.00016973,98.4011,193.5007,93.3031,266.8353,0,U,41727,999,52121,-.3715219E-5,-.56E-6,0
SKYSAT-C4,2016-058B,2026-07-04T07:46:12.417312,15.49141148,.00028545,96.9163,206.3834,134.2708,225.8779,0,U,41771,999,54812,.41239451E-3,.22372E-3,0
SKYSAT-C5,2016-058C,2026-07-04T20:09:45.697536,15.34736407,.0002198,97.0456,225.6942,183.2144,176.9087,0,U,41772,999,54645,.38858981E-3,.13017E-3,0
SKYSAT-C2,2016-058D,2026-07-04T18:39:45.406368,15.42495246,.00027832,97.0161,207.2138,28.9568,331.1835,0,U,41773,999,54776,.52036018E-3,.22506E-3,0
SKYSAT-C3,2016-058E,2026-07-04T13:00:09.711648,15.53318604,.00017023,96.8996,215.7278,134.9962,225.1431,0,U,41774,999,54880,.68379473E-3,.43204E-3,0
ALSAT-1B,2016-059C,2026-07-04T23:29:06.829728,14.72287643,.00095775,97.7749,193.9744,160.1455,200.0128,0,U,41785,999,52319,.40649669E-4,.21E-5,0
PATHFINDER 1,2016-059E,2026-07-04T22:20:02.590656,14.67685395,.00292118,97.8170,184.4063,147.2028,213.0998,0,U,41787,999,52231,.1596017E-3,.867E-5,0
SCATSAT 1,2016-059H,2026-07-04T15:52:52.157856,14.79570570,.00544139,98.1181,249.6077,190.3648,169.6446,0,U,41790,999,10417,.26720409E-3,.1994E-4,0
GOKTURK 1A,2016-073A,2026-07-04T21:27:12.629952,14.62788393,.00013953,98.1227,80.2893,79.0687,281.0672,0,U,41875,999,51141,.13739731E-3,.654E-5,0
RESOURCESAT-2A,2016-074A,2026-07-04T22:44:59.609760,14.21606036,.00029262,98.7521,259.3069,49.6762,310.4670,0,U,41877,999,49682,-.1738378E-4,-.82E-6,0
CARTOSAT-2D,2017-008A,2026-07-04T22:36:00.305280,15.19224287,.00051062,97.4093,244.9150,168.2149,191.9206,0,U,41948,999,52027,.24497192E-3,.5093E-4,0
SENTINEL-2B,2017-013A,2026-07-04T21:35:42.021888,14.30812154,.00012144,98.5686,260.4242,89.8357,270.2965,0,U,42063,999,48717,-.2238425E-4,-.102E-5,0
CARTOSAT-2E,2017-036C,2026-07-03T15:24:38.922624,15.19298181,.000249,97.4262,244.1738,235.4252,124.6748,0,U,42767,999,50064,.32509E-3,.6795E-4,0
FORMOSAT-5,2017-049A,2026-07-04T21:56:40.467264,14.50905782,.00120099,98.2250,260.8301,34.4867,325.7105,0,U,42920,999,46924,.70322726E-4,.234E-5,0
SENTINEL-5P,2017-064A,2026-07-04T19:45:38.621088,14.19522247,.0001088,98.7928,127.8294,92.0337,268.0964,0,U,42969,999,45206,.67553483E-4,.98E-6,0
SKYSAT-C11,2017-068A,2026-07-04T09:28:51.130272,15.58821897,.00005076,97.4373,334.9871,161.2582,198.8692,0,U,42987,999,48592,.5279564E-3,.40816E-3,0
SKYSAT-C10,2017-068B,2026-07-04T15:14:28.129920,15.34954592,.0001266,97.4530,322.6571,108.4549,251.6831,0,U,42988,999,48503,.56482026E-3,.19095E-3,0
SKYSAT-C9,2017-068C,2026-07-04T19:51:43.115904,15.42018637,.00092773,97.4451,323.9565,77.6251,282.6034,0,U,42989,999,48547,.50673319E-3,.21589E-3,0
SKYSAT-C8,2017-068D,2026-07-04T20:09:36.337824,15.37337781,.00011974,97.4548,322.7320,96.1071,264.0309,0,U,42990,999,48502,.47415956E-3,.17285E-3,0
SKYSAT-C7,2017-068E,2026-07-04T02:50:08.504736,15.37264492,.00065931,97.4559,322.9903,56.7606,303.4269,0,U,42991,999,48497,.3704449E-3,.13456E-3,0
SKYSAT-C6,2017-068F,2026-07-04T19:44:05.904384,15.34283314,.00052085,97.4596,323.6042,103.9495,256.2328,0,U,42992,999,48502,.47207554E-3,.15608E-3,0
CARTOSAT-2F,2018-004A,2026-07-04T23:48:20.805408,15.19211071,.00019102,97.4772,245.4519,156.7921,203.3400,0,U,43111,999,47003,.32708682E-3,.6819E-4,0
GAOFEN-1 02,2018-031A,2026-07-04T23:41:01.279104,14.76459523,.00020701,98.0515,248.4633,338.7530,21.3593,0,U,43259,999,44532,.65192904E-4,.402E-5,0
GAOFEN-1 03,2018-031B,2026-07-04T23:09:23.231808,14.76452600,.00031845,98.0509,248.2980,41.6750,318.4702,0,U,43260,999,44531,.14135769E-3,.932E-5,0
GAOFEN-1 04,2018-031D,2026-07-04T22:34:29.105760,14.76460318,.00017109,98.0516,248.4667,61.3587,298.7794,0,U,43262,999,44530,.14623935E-3,.966E-5,0
SENTINEL-3B,2018-039A,2026-07-04T10:35:58.954848,14.26739817,.00008916,98.6242,252.7259,116.8484,243.2787,0,U,43437,999,42658,.7502834E-4,.138E-5,0
GAOFEN-5 01,2018-043A,2026-07-04T16:01:09.911712,14.60618723,.00026259,98.4581,157.6218,52.0777,308.0659,0,U,43461,999,43424,.11478406E-3,.509E-5,0
GAOFEN-6,2018-048A,2026-07-04T03:34:57.203616,14.76373246,.00120196,98.0962,247.8248,112.9072,247.3408,0,U,43484,999,43589,.46408784E-4,.27E-5,0
